{"type": "FeatureCollection", "features": [ {"type": "Feature", "properties": {"norad_id": 33153, "name": "INTELSAT 25 (IS-25)", "group": "intelsat", "lat": 0.45451424050179595, "lon": -109.86097896200927, "alt_km": 35763.7571453342, "timestamp": "2025-12-04T13:52:00.115631+00:00", "meta": {"OBJECT_NAME": "INTELSAT 25 (IS-25)", "OBJECT_ID": "2008-034A", "EPOCH": "2025-12-04T06:43:41.394144", "MEAN_MOTION": 1.00271178, "ECCENTRICITY": 0.00053971, "INCLINATION": 2.2043, "RA_OF_ASC_NODE": 82.7431, "ARG_OF_PERICENTER": 178.3332, "MEAN_ANOMALY": 241.7118, "EPHEMERIS_TYPE": 0, "CLASSIFICATION_TYPE": "U", "NORAD_CAT_ID": 33153, "ELEMENT_SET_NO": 999, "REV_AT_EPOCH": 6374, "BSTAR": 0, "MEAN_MOTION_DOT": -2.09e-06, "MEAN_MOTION_DDOT": 0}, "tle": {"line1": "1 33153U 08034A   25338.28034021 -.00000209  00000+0  00000+0 0  9991", "line2": "2 33153   2.2043  82.7431 0005397 178.3332 241.7118  1.00271178 63745"}}, "geometry": {"type": "Point", "coordinates": [-109.86097896200927, 0.45451424050179595]}}, {"type": "Feature", "properties": {"norad_id": 33376, "name": "GALAXY 19 (G-19)", "group": "intelsat", "lat": -0.0069190292087090615, "lon": -175.40408464612585, "alt_km": 35783.39096351535, "timestamp": "2025-12-04T13:52:00.115643+00:00", "meta": {"OBJECT_NAME": "GALAXY 19 (G-19)", "OBJECT_ID": "2008-045A", "EPOCH": "2025-12-04T06:24:58.187232", "MEAN_MOTION": 1.00270783, "ECCENTRICITY": 0.00033778, "INCLINATION": 0.0149, "RA_OF_ASC_NODE": 16.2013, "ARG_OF_PERICENTER": 246.4858, "MEAN_ANOMALY": 169.9049, "EPHEMERIS_TYPE": 0, "CLASSIFICATION_TYPE": "U", "NORAD_CAT_ID": 33376, "ELEMENT_SET_NO": 999, "REV_AT_EPOCH": 6294, "BSTAR": 0, "MEAN_MOTION_DOT": -1.23e-06, "MEAN_MOTION_DDOT": 0}, "tle": {"line1": "1 33376U 08045A   25338.26734013 -.00000123  00000+0  00000+0 0  9991", "line2": "2 33376   0.0149  16.2013 0003377 246.4858 169.9049  1.00270783 62945"}}, "geometry": {"type": "Point", "coordinates": [-175.40408464612585, -0.0069190292087090615]}}, {"type": "Feature", "properties": {"norad_id": 35493, "name": "FM-5", "group": "intelsat", "lat": -0.03950013490137003, "lon": -164.50921626089146, "alt_km": 35782.72606045389, "timestamp": "2025-12-04T13:52:00.115654+00:00", "meta": {"OBJECT_NAME": "FM-5", "OBJECT_ID": "2009-034A", "EPOCH": "2025-12-04T06:28:05.388384", "MEAN_MOTION": 1.00269426, "ECCENTRICITY": 0.00011086, "INCLINATION": 0.02, "RA_OF_ASC_NODE": 287.2113, "ARG_OF_PERICENTER": 238.7, "MEAN_ANOMALY": 278.3151, "EPHEMERIS_TYPE": 0, "CLASSIFICATION_TYPE": "U", "NORAD_CAT_ID": 35493, "ELEMENT_SET_NO": 999, "REV_AT_EPOCH": 4469, "BSTAR": 0, "MEAN_MOTION_DOT": -1.84e-06, "MEAN_MOTION_DDOT": 0}, "tle": {"line1": "1 35493U 09034A   25338.26950681 -.00000184  00000+0  00000+0 0  9990", "line2": "2 35493   0.0200 287.2113 0001108 238.7000 278.3151  1.00269426 44692"}}, "geometry": {"type": "Point", "coordinates": [-164.50921626089146, -0.03950013490137003]}}, {"type": "Feature", "properties": {"norad_id": 36097, "name": "INTELSAT 14 (IS-14)", "group": "intelsat", "lat": -0.038545694610180675, "lon": -123.37628783662667, "alt_km": 35775.60558194373, "timestamp": "2025-12-04T13:52:00.115666+00:00", "meta": {"OBJECT_NAME": "INTELSAT 14 (IS-14)", "OBJECT_ID": "2009-064A", "EPOCH": "2025-12-04T06:39:49.264992", "MEAN_MOTION": 1.00271071, "ECCENTRICITY": 0.00026882, "INCLINATION": 0.0137, "RA_OF_ASC_NODE": 310.0555, "ARG_OF_PERICENTER": 306.4876, "MEAN_ANOMALY": 231.772, "EPHEMERIS_TYPE": 0, "CLASSIFICATION_TYPE": "U", "NORAD_CAT_ID": 36097, "ELEMENT_SET_NO": 999, "REV_AT_EPOCH": 5865, "BSTAR": 0, "MEAN_MOTION_DOT": -2.58e-06, "MEAN_MOTION_DDOT": 0}, "tle": {"line1": "1 36097U 09064A   25338.27765353 -.00000258  00000+0  00000+0 0  9997", "line2": "2 36097   0.0137 310.0555 0002688 306.4876 231.7720  1.00271071 58650"}}, "geometry": {"type": "Point", "coordinates": [-123.37628783662667, -0.038545694610180675]}}, {"type": "Feature", "properties": {"norad_id": 36106, "name": "INTELSAT 15 (IS-15)", "group": "intelsat", "lat": 0.02319146082948743, "lon": 6.813506995309105, "alt_km": 35790.45492479385, "timestamp": "2025-12-04T13:52:00.115678+00:00", "meta": {"OBJECT_NAME": "INTELSAT 15 (IS-15)", "OBJECT_ID": "2009-067A", "EPOCH": "2025-12-04T03:10:38.713728", "MEAN_MOTION": 1.0027022, "ECCENTRICITY": 0.00024584, "INCLINATION": 0.0139, "RA_OF_ASC_NODE": 336.3645, "ARG_OF_PERICENTER": 278.4254, "MEAN_ANOMALY": 311.2428, "EPHEMERIS_TYPE": 0, "CLASSIFICATION_TYPE": "U", "NORAD_CAT_ID": 36106, "ELEMENT_SET_NO": 999, "REV_AT_EPOCH": 3927, "BSTAR": 0, "MEAN_MOTION_DOT": -1.69e-06, "MEAN_MOTION_DDOT": 0}, "tle": {"line1": "1 36106U 09067A   25338.13239252 -.00000169  00000+0  00000+0 0  9991", "line2": "2 36106   0.0139 336.3645 0002458 278.4254 311.2428  1.00270220 39278"}}, "geometry": {"type": "Point", "coordinates": [6.813506995309105, 0.02319146082948743]}}, {"type": "Feature", "properties": {"norad_id": 36131, "name": "DIRECTV 12", "group": "intelsat", "lat": 0.0018697265847512662, "lon": 178.91194906806737, "alt_km": 35785.963342748495, "timestamp": "2025-12-04T13:52:00.115689+00:00", "meta": {"OBJECT_NAME": "DIRECTV 12", "OBJECT_ID": "2009-075A", "EPOCH": "2025-12-04T06:23:20.842944", "MEAN_MOTION": 1.00270945, "ECCENTRICITY": 8.61e-06, "INCLINATION": 0.0116, "RA_OF_ASC_NODE": 87.7232, "ARG_OF_PERICENTER": 96.3466, "MEAN_ANOMALY": 242.3934, "EPHEMERIS_TYPE": 0, "CLASSIFICATION_TYPE": "U", "NORAD_CAT_ID": 36131, "ELEMENT_SET_NO": 999, "REV_AT_EPOCH": 4459, "BSTAR": 0, "MEAN_MOTION_DOT": -8.8e-07, "MEAN_MOTION_DDOT": 0}, "tle": {"line1": "1 36131U 09075A   25338.26621346 -.00000088  00000+0  00000+0 0  9991", "line2": "2 36131   0.0116  87.7232 0000086  96.3466 242.3934  1.00270945 44598"}}, "geometry": {"type": "Point", "coordinates": [178.91194906806737, 0.0018697265847512662]}}, {"type": "Feature", "properties": {"norad_id": 36397, "name": "INTELSAT 16 (IS-16)", "group": "intelsat", "lat": -0.032612244616295534, "lon": -154.59917162606177, "alt_km": 35780.54914770117, "timestamp": "2025-12-04T13:52:00.115701+00:00", "meta": {"OBJECT_NAME": "INTELSAT 16 (IS-16)", "OBJECT_ID": "2010-006A", "EPOCH": "2025-12-04T06:30:57.612960", "MEAN_MOTION": 1.00269649, "ECCENTRICITY": 0.00024234, "INCLINATION": 0.0101, "RA_OF_ASC_NODE": 321.3035, "ARG_OF_PERICENTER": 297.2807, "MEAN_ANOMALY": 196.3001, "EPHEMERIS_TYPE": 0, "CLASSIFICATION_TYPE": "U", "NORAD_CAT_ID": 36397, "ELEMENT_SET_NO": 999, "REV_AT_EPOCH": 5770, "BSTAR": 0, "MEAN_MOTION_DOT": -2.29e-06, "MEAN_MOTION_DDOT": 0}, "tle": {"line1": "1 36397U 10006A   25338.27150015 -.00000229  00000+0  00000+0 0  9999", "line2": "2 36397   0.0101 321.3035 0002423 297.2807 196.3001  1.00269649 57701"}}, "geometry": {"type": "Point", "coordinates": [-154.59917162606177, -0.032612244616295534]}}, {"type": "Feature", "properties": {"norad_id": 37185, "name": "XM-5", "group": "intelsat", "lat": -0.06671798640772596, "lon": 166.4352947807664, "alt_km": 35781.47651460783, "timestamp": "2025-12-04T13:52:00.115713+00:00", "meta": {"OBJECT_NAME": "XM-5", "OBJECT_ID": "2010-053A", "EPOCH": "2025-12-04T04:37:07.552992", "MEAN_MOTION": 1.00269497, "ECCENTRICITY": 0.00012779, "INCLINATION": 0.06, "RA_OF_ASC_NODE": 273.4214, "ARG_OF_PERICENTER": 241.3568, "MEAN_ANOMALY": 232.5796, "EPHEMERIS_TYPE": 0, "CLASSIFICATION_TYPE": "U", "NORAD_CAT_ID": 37185, "ELEMENT_SET_NO": 999, "REV_AT_EPOCH": 5552, "BSTAR": 0, "MEAN_MOTION_DOT": -7e-08, "MEAN_MOTION_DDOT": 0}, "tle": {"line1": "1 37185U 10053A   25338.19244853 -.00000007  00000+0  00000+0 0  9996", "line2": "2 37185   0.0600 273.4214 0001277 241.3568 232.5796  1.00269497 55520"}}, "geometry": {"type": "Point", "coordinates": [166.4352947807664, -0.06671798640772596]}}, {"type": "Feature", "properties": {"norad_id": 37238, "name": "INTELSAT 17 (IS-17)", "group": "intelsat", "lat": 0.0244738780456679, "lon": -12.352485143827815, "alt_km": 35788.32134358477, "timestamp": "2025-12-04T13:52:00.115725+00:00", "meta": {"OBJECT_NAME": "INTELSAT 17 (IS-17)", "OBJECT_ID": "2010-065B", "EPOCH": "2025-12-04T03:45:57.456000", "MEAN_MOTION": 1.00269312, "ECCENTRICITY": 0.0002322, "INCLINATION": 0.0139, "RA_OF_ASC_NODE": 286.2982, "ARG_OF_PERICENTER": 322.1387, "MEAN_ANOMALY": 307.283, "EPHEMERIS_TYPE": 0, "CLASSIFICATION_TYPE": "U", "NORAD_CAT_ID": 37238, "ELEMENT_SET_NO": 999, "REV_AT_EPOCH": 5129, "BSTAR": 0, "MEAN_MOTION_DOT": 1.5e-07, "MEAN_MOTION_DDOT": 0}, "tle": {"line1": "1 37238U 10065B   25338.15691500  .00000015  00000+0  00000+0 0  9997", "line2": "2 37238   0.0139 286.2982 0002322 322.1387 307.2830  1.00269312 51294"}}, "geometry": {"type": "Point", "coordinates": [-12.352485143827815, 0.0244738780456679]}}, {"type": "Feature", "properties": {"norad_id": 37392, "name": "INTELSAT 28 (IS-28)", "group": "intelsat", "lat": 0.3154810542937393, "lon": -110.07739839021012, "alt_km": 35769.01293621293, "timestamp": "2025-12-04T13:52:00.115736+00:00", "meta": {"OBJECT_NAME": "INTELSAT 28 (IS-28)", "OBJECT_ID": "2011-016A", "EPOCH": "2025-12-04T06:43:33.905856", "MEAN_MOTION": 1.00271033, "ECCENTRICITY": 0.00041248, "INCLINATION": 1.3011, "RA_OF_ASC_NODE": 85.1581, "ARG_OF_PERICENTER": 173.8071, "MEAN_ANOMALY": 243.578, "EPHEMERIS_TYPE": 0, "CLASSIFICATION_TYPE": "U", "NORAD_CAT_ID": 37392, "ELEMENT_SET_NO": 999, "REV_AT_EPOCH": 5133, "BSTAR": 0, "MEAN_MOTION_DOT": -2.1e-06, "MEAN_MOTION_DDOT": 0}, "tle": {"line1": "1 37392U 11016A   25338.28025354 -.00000210  00000+0  00000+0 0  9995", "line2": "2 37392   1.3011  85.1581 0004124 173.8071 243.5780  1.00271033 51336"}}, "geometry": {"type": "Point", "coordinates": [-110.07739839021012, 0.3154810542937393]}}]}